OBJECT_NAME,OBJECT_ID,EPOCH,MEAN_MOTION,ECCENTRICITY,INCLINATION,RA_OF_ASC_NODE,ARG_OF_PERICENTER,MEAN_ANOMALY,EPHEMERIS_TYPE,CLASSIFICATION_TYPE,NORAD_CAT_ID,ELEMENT_SET_NO,REV_AT_EPOCH,BSTAR,MEAN_MOTION_DOT,MEAN_MOTION_DDOT
STARLINK-37388,2026-094X,2026-07-14T13:55:34.466592,15.33440015,.0001186,97.2826,209.7433,107.9430,252.1942,0,U,68860,999,1225,.25661606E-3,.8217E-4,0
STARLINK-37479,2026-094Y,2026-07-14T13:47:44.559456,15.33443155,.00009732,97.2827,209.7507,124.6584,235.4750,0,U,68861,999,1225,.30696743E-3,.9847E-4,0
STARLINK-37453,2026-094Z,2026-07-14T13:59:30.814656,15.33440233,.00012707,97.2829,209.7413,108.2728,251.8653,0,U,68862,999,1225,.2843249E-3,.9114E-4,0
STARLINK-37430,2026-094AA,2026-07-14T13:51:39.524256,15.33442048,.00012152,97.2826,209.7472,94.6979,265.4402,0,U,68863,999,1225,.26432318E-3,.8467E-4,0
KUIPER-00299,2026-095A,2026-07-14T13:05:21.423840,14.76473876,.00014281,51.9001,128.2313,269.0021,91.0776,0,U,68864,999,1168,.17947091E-3,.1046E-4,0
KUIPER-00353,2026-095B,2026-07-14T14:00:01.999872,14.83529855,.00018094,51.9002,114.5608,282.3904,331.4232,0,U,68865,999,561,-.42557578E-2,-.35412E-3,0
KUIPER-00357,2026-095C,2026-07-14T11:44:38.042880,14.79922677,.000125,51.9025,122.4301,82.3358,277.7747,0,U,68866,999,1176,.25498194E-3,.1723E-4,0
KUIPER-00364,2026-095D,2026-07-14T14:06:36.235296,14.79905134,.00013122,51.9041,124.5022,153.6964,206.4065,0,U,68867,999,1174,.25283604E-3,.1705E-4,0
KUIPER-00375,2026-095E,2026-07-14T14:00:01.999872,14.78369815,.00026778,51.9014,116.3536,75.7840,18.5672,0,U,68868,999,574,-.86290854E-2,-.63019E-3,0
KUIPER-00433,2026-095F,2026-07-14T13:06:49.366944,14.79953277,.0001031,51.9000,132.1773,83.9262,276.1818,0,U,68869,999,1163,.25682388E-3,.1738E-4,0
KUIPER-00437,2026-095G,2026-07-13T23:44:09.402144,15.38594067,.00089466,51.8793,112.7016,40.9630,319.2028,0,U,68870,999,1185,.48756379E-3,.18544E-3,0
KUIPER-00448,2026-095H,2026-07-14T11:45:24.685920,14.76431241,.00014506,51.9034,120.6790,162.6396,197.4615,0,U,68871,999,1178,.16552082E-3,.947E-5,0
KUIPER-00459,2026-095J,2026-07-14T14:00:01.999872,15.15722990,.00090431,51.8797,111.6430,42.6677,125.3050,0,U,68872,999,325,-.95079589E-1,-.1662226E-1,0
KUIPER-00468,2026-095K,2026-07-14T14:00:01.999872,15.23234895,.00053387,51.8864,110.3754,7.0756,157.3590,0,U,68873,999,252,-.82577238E-1,-.1783024E-1,0
KUIPER-00476,2026-095L,2026-07-14T11:32:18.667104,15.33795232,.0010456,51.8742,111.4303,44.0924,316.0893,0,U,68874,999,1191,-.44640671E-3,-.15189E-3,0
KUIPER-00478,2026-095M,2026-07-14T14:00:01.999872,14.98537409,.0005672,51.8899,112.4398,29.6597,187.0271,0,U,68875,999,470,-.29584051E-3,-.3843E-4,0
KUIPER-00480,2026-095N,2026-07-14T14:00:01.999872,15.14373383,.00061333,51.8830,110.8769,24.0077,235.0004,0,U,68876,999,264,-.11065314E+0,-.1868032E-1,0
KUIPER-00482,2026-095P,2026-07-14T12:00:22.608288,14.76418638,.00009107,51.9017,119.6149,241.1795,118.9074,0,U,68877,999,1180,.17084414E-3,.984E-5,0
KUIPER-00483,2026-095Q,2026-07-14T05:14:35.228256,14.76519332,.00013533,51.8983,133.3576,241.8876,118.1948,0,U,68878,999,1158,.1810547E-3,.1059E-4,0
KUIPER-00488,2026-095R,2026-07-14T14:00:01.999872,14.85993374,.00094424,51.8991,114.6539,65.0749,332.1747,0,U,68879,999,512,-.34350027E-2,-.30436E-3,0
KUIPER-00489,2026-095S,2026-07-14T13:24:26.162496,15.31966902,.00126329,51.8774,111.2100,42.6233,317.5729,0,U,68880,999,1192,-.74119439E-2,-.226359E-2,0
KUIPER-00499,2026-095T,2026-07-14T14:00:01.999872,15.01447411,.00064848,51.8886,113.1423,57.5632,56.3595,0,U,68881,999,280,-.28007307E-3,-.3929E-4,0
KUIPER-00500,2026-095U,2026-07-14T12:21:35.572320,14.79932310,.00013536,51.9010,129.8132,35.4046,324.7006,0,U,68882,999,1166,.25299621E-3,.1708E-4,0
KUIPER-00502,2026-095V,2026-07-14T14:00:01.999872,15.27204530,.00060544,51.8819,109.9059,50.8918,316.2038,0,U,68883,999,553,-.83992251E-1,-.2050863E-1,0
KUIPER-00503,2026-095W,2026-07-14T13:14:07.545408,14.79929366,.00007062,51.8959,127.1446,100.8469,259.2572,0,U,68884,999,1170,.2595115E-3,.1758E-4,0
KUIPER-00504,2026-095X,2026-07-14T05:44:52.073376,14.79927135,.00008936,51.9020,136.0315,74.7029,285.4033,0,U,68885,999,1155,.24645095E-3,.1658E-4,0
KUIPER-00505,2026-095Y,2026-07-14T00:20:01.379904,14.79935607,.00004326,51.9020,127.0319,85.4897,274.6115,0,U,68886,999,1165,.25321512E-3,.171E-4,0
KUIPER-00507,2026-095Z,2026-07-14T14:00:01.999872,14.86642256,.00031111,51.8974,114.3511,148.6824,125.8575,0,U,68887,999,532,.15181035E-2,.13402E-3,0
KUIPER-00511,2026-095AA,2026-07-14T14:00:01.999872,15.21987352,.00054797,51.8861,110.2681,30.4651,125.2083,0,U,68888,999,594,-.726378E-1,-.1534515E-1,0
KUIPER-00512,2026-095AB,2026-07-14T12:25:27.345504,14.79935315,.00008024,51.9027,127.3051,101.8522,258.2530,0,U,68889,999,1169,-.8833637E-5,-.289E-5,0
