STARLINK-37388          
1 68860U 26094X   26195.58026003  .00008217  00000+0  25662-3 0  9997
2 68860  97.2826 209.7433 0001186 107.9430 252.1942 15.33440015 12253
STARLINK-37479          
1 68861U 26094Y   26195.57482129  .00009847  00000+0  30697-3 0  9996
2 68861  97.2827 209.7507 0000973 124.6584 235.4750 15.33443155 12255
STARLINK-37453          
1 68862U 26094Z   26195.58299554  .00009114  00000+0  28432-3 0  9997
2 68862  97.2829 209.7413 0001270 108.2728 251.8653 15.33440233 12251
STARLINK-37430          
1 68863U 26094AA  26195.57754079  .00008467  00000+0  26432-3 0  9993
2 68863  97.2826 209.7472 0001215  94.6979 265.4402 15.33442048 12258
KUIPER-00299            
1 68864U 26095A   26195.54538685  .00001046  00000+0  17947-3 0  9992
2 68864  51.9001 128.2313 0001428 269.0021  91.0776 14.76473876 11684
KUIPER-00353            
1 68865U 26095B   26195.58335648 -.00035412  00000+0 -42558-2 0  9992
2 68865  51.9002 114.5608 0001809 282.3904 331.4232 14.83529855  5613
KUIPER-00357            
1 68866U 26095C   26195.48932920  .00001723  00000+0  25498-3 0  9999
2 68866  51.9025 122.4301 0001250  82.3358 277.7747 14.79922677 11768
KUIPER-00364            
1 68867U 26095D   26195.58791939  .00001705  00000+0  25284-3 0  9997
2 68867  51.9041 124.5022 0001312 153.6964 206.4065 14.79905134 11743
KUIPER-00375            
1 68868U 26095E   26195.58335648 -.00063019  00000+0 -86291-2 0  9991
2 68868  51.9014 116.3536 0002677  75.7840  18.5672 14.78369815  5743
KUIPER-00433            
1 68869U 26095F   26195.54640471  .00001738  00000+0  25682-3 0  9997
2 68869  51.9000 132.1773 0001031  83.9262 276.1818 14.79953277 11631
KUIPER-00437            
1 68870U 26095G   26194.98899771  .00018544  00000+0  48756-3 0  9995
2 68870  51.8793 112.7016 0008946  40.9630 319.2028 15.38594067 11859
KUIPER-00448            
1 68871U 26095H   26195.48986905  .00000947  00000+0  16552-3 0  9995
2 68871  51.9034 120.6790 0001450 162.6396 197.4615 14.76431241 11785
KUIPER-00459            
1 68872U 26095J   26195.58335648 -.01662226  00000+0 -95080-1 0  9997
2 68872  51.8797 111.6430 0009043  42.6677 125.3050 15.15722990  3251
KUIPER-00468            
1 68873U 26095K   26195.58335648 -.01783024  00000+0 -82577-1 0  9995
2 68873  51.8864 110.3754 0005338   7.0756 157.3590 15.23234895  2522
KUIPER-00476            
1 68874U 26095L   26195.48077161 -.00015189  00000+0 -44641-3 0  9999
2 68874  51.8742 111.4303 0010456  44.0924 316.0893 15.33795232 11916
KUIPER-00478            
1 68875U 26095M   26195.58335648 -.00003843  00000+0 -29584-3 0  9991
2 68875  51.8899 112.4398 0005672  29.6597 187.0271 14.98537409  4709
KUIPER-00480            
1 68876U 26095N   26195.58335648 -.01868032  00000+0 -11065+0 0  9993
2 68876  51.8830 110.8769 0006133  24.0077 235.0004 15.14373383  2641
KUIPER-00482            
1 68877U 26095P   26195.50026167  .00000984  00000+0  17084-3 0  9991
2 68877  51.9017 119.6149 0000910 241.1795 118.9074 14.76418638 11809
KUIPER-00483            
1 68878U 26095Q   26195.21846329  .00001059  00000+0  18105-3 0  9999
2 68878  51.8983 133.3576 0001353 241.8876 118.1948 14.76519332 11587
KUIPER-00488            
1 68879U 26095R   26195.58335648 -.00030436  00000+0 -34350-2 0  9999
2 68879  51.8991 114.6539 0009442  65.0749 332.1747 14.85993374  5120
KUIPER-00489            
1 68880U 26095S   26195.55863614 -.00226359  00000+0 -74119-2 0  9995
2 68880  51.8774 111.2100 0012632  42.6233 317.5729 15.31966902 11923
KUIPER-00499            
1 68881U 26095T   26195.58335648 -.00003929  00000+0 -28007-3 0  9992
2 68881  51.8886 113.1423 0006484  57.5632  56.3595 15.01447411  2805
KUIPER-00500            
1 68882U 26095U   26195.51499505  .00001708  00000+0  25300-3 0  9993
2 68882  51.9010 129.8132 0001353  35.4046 324.7006 14.79932310 11665
KUIPER-00502            
1 68883U 26095V   26195.58335648 -.02050863  00000+0 -83992-1 0  9997
2 68883  51.8819 109.9059 0006054  50.8918 316.2038 15.27204530  5531
KUIPER-00503            
1 68884U 26095W   26195.55147622  .00001758  00000+0  25951-3 0  9996
2 68884  51.8959 127.1446 0000706 100.8469 259.2572 14.79929366 11706
KUIPER-00504            
1 68885U 26095X   26195.23949159  .00001658  00000+0  24645-3 0  9995
2 68885  51.9020 136.0315 0000893  74.7029 285.4033 14.79927135 11557
KUIPER-00505            
1 68886U 26095Y   26195.01390486  .00001710  00000+0  25322-3 0  9997
2 68886  51.9020 127.0319 0000432  85.4897 274.6115 14.79935607 11658
KUIPER-00507            
1 68887U 26095Z   26195.58335648  .00013402  00000+0  15181-2 0  9991
2 68887  51.8974 114.3511 0003111 148.6824 125.8575 14.86642256  5325
KUIPER-00511            
1 68888U 26095AA  26195.58335648 -.01534515  00000+0 -72638-1 0  9997
2 68888  51.8861 110.2681 0005479  30.4651 125.2083 15.21987352  5944
KUIPER-00512            
1 68889U 26095AB  26195.51767761 -.00000289  00000+0 -88336-5 0  9997
2 68889  51.9027 127.3051 0000802 101.8522 258.2530 14.79935315 11692
